[{"OBJECT_NAME":"SL-16 R/B","OBJECT_ID":"1993-059B","EPOCH":"2026-04-20T21:30:24.758496","MEAN_MOTION":14.17238435,"ECCENTRICITY":0.00160611,"INCLINATION":70.989,"RA_OF_ASC_NODE":282.1204,"ARG_OF_PERICENTER":152.7097,"MEAN_ANOMALY":207.4874,"EPHEMERIS_TYPE":0,"CLASSIFICATION_TYPE":"U","NORAD_CAT_ID":22803,"ELEMENT_SET_NO":999,"REV_AT_EPOCH":68551,"BSTAR":-6.4070062e-5,"MEAN_MOTION_DOT":-1.78e-6,"MEAN_MOTION_DDOT":0},{"OBJECT_NAME":"ARIANE 40 R/B","OBJECT_ID":"1993-061H","EPOCH":"2026-04-20T22:41:51.497952","MEAN_MOTION":14.32882216,"ECCENTRICITY":0.00113757,"INCLINATION":98.485,"RA_OF_ASC_NODE":178.984,"ARG_OF_PERICENTER":153.7638,"MEAN_ANOMALY":206.4125,"EPHEMERIS_TYPE":0,"CLASSIFICATION_TYPE":"U","NORAD_CAT_ID":22830,"ELEMENT_SET_NO":999,"REV_AT_EPOCH":70015,"BSTAR":6.3837079e-5,"MEAN_MOTION_DOT":1.31e-6,"MEAN_MOTION_DDOT":0},{"OBJECT_NAME":"COSMOS 2278","OBJECT_ID":"1994-023A","EPOCH":"2026-04-20T16:16:43.517280","MEAN_MOTION":14.14384074,"ECCENTRICITY":0.001015,"INCLINATION":71.0522,"RA_OF_ASC_NODE":87.2472,"ARG_OF_PERICENTER":314.5098,"MEAN_ANOMALY":45.5194,"EPHEMERIS_TYPE":0,"CLASSIFICATION_TYPE":"U","NORAD_CAT_ID":23087,"ELEMENT_SET_NO":999,"REV_AT_EPOCH":65074,"BSTAR":0.00018783547,"MEAN_MOTION_DOT":3.12e-6,"MEAN_MOTION_DDOT":0},{"OBJECT_NAME":"SL-16 R/B","OBJECT_ID":"1994-023B","EPOCH":"2026-04-20T22:01:42.608064","MEAN_MOTION":14.15016419,"ECCENTRICITY":0.00053891,"INCLINATION":71.0008,"RA_OF_ASC_NODE":342.2061,"ARG_OF_PERICENTER":247.9455,"MEAN_ANOMALY":112.1096,"EPHEMERIS_TYPE":0,"CLASSIFICATION_TYPE":"U","NORAD_CAT_ID":23088,"ELEMENT_SET_NO":999,"REV_AT_EPOCH":65206,"BSTAR":-9.6477905e-5,"MEAN_MOTION_DOT":-2.35e-6,"MEAN_MOTION_DDOT":0},{"OBJECT_NAME":"SL-16 R/B","OBJECT_ID":"1994-074B","EPOCH":"2026-04-20T16:03:37.877760","MEAN_MOTION":14.79451983,"ECCENTRICITY":0.00081075,"INCLINATION":97.7047,"RA_OF_ASC_NODE":139.7746,"ARG_OF_PERICENTER":86.2174,"MEAN_ANOMALY":27.0288,"EPHEMERIS_TYPE":0,"CLASSIFICATION_TYPE":"U","NORAD_CAT_ID":23343,"ELEMENT_SET_NO":999,"REV_AT_EPOCH":69345,"BSTAR":4.1399201e-5,"MEAN_MOTION_DOT":2.6e-6,"MEAN_MOTION_DDOT":0},{"OBJECT_NAME":"SL-16 R/B","OBJECT_ID":"1994-077B","EPOCH":"2026-04-20T19:29:47.742432","MEAN_MOTION":14.15570099,"ECCENTRICITY":7.337e-5,"INCLINATION":70.9818,"RA_OF_ASC_NODE":263.8674,"ARG_OF_PERICENTER":143.0015,"MEAN_ANOMALY":217.1159,"EPHEMERIS_TYPE":0,"CLASSIFICATION_TYPE":"U","NORAD_CAT_ID":23405,"ELEMENT_SET_NO":999,"REV_AT_EPOCH":62219,"BSTAR":0.0001534189,"MEAN_MOTION_DOT":2.52e-6,"MEAN_MOTION_DDOT":0},{"OBJECT_NAME":"ARIANE 40+ R/B","OBJECT_ID":"1995-021B","EPOCH":"2026-04-20T22:51:14.636736","MEAN_MOTION":14.39800715,"ECCENTRICITY":0.00070434,"INCLINATION":98.4436,"RA_OF_ASC_NODE":181.8478,"ARG_OF_PERICENTER":26.0632,"MEAN_ANOMALY":146.6853,"EPHEMERIS_TYPE":0,"CLASSIFICATION_TYPE":"U","NORAD_CAT_ID":23561,"ELEMENT_SET_NO":999,"REV_AT_EPOCH":62532,"BSTAR":7.169068e-5,"MEAN_MOTION_DOT":1.81e-6,"MEAN_MOTION_DDOT":0},{"OBJECT_NAME":"SL-16 R/B","OBJECT_ID":"1995-058B","EPOCH":"2026-04-20T16:19:16.663008","MEAN_MOTION":14.15505111,"ECCENTRICITY":0.00107686,"INCLINATION":71.02,"RA_OF_ASC_NODE":92.0956,"ARG_OF_PERICENTER":48.2638,"MEAN_ANOMALY":311.9404,"EPHEMERIS_TYPE":0,"CLASSIFICATION_TYPE":"U","NORAD_CAT_ID":23705,"ELEMENT_SET_NO":999,"REV_AT_EPOCH":57379,"BSTAR":3.4845799e-5,"MEAN_MOTION_DOT":2.1e-7,"MEAN_MOTION_DDOT":0},{"OBJECT_NAME":"SL-16 R/B","OBJECT_ID":"1996-051B","EPOCH":"2026-04-20T16:00:33.378336","MEAN_MOTION":14.12426336,"ECCENTRICITY":0.00125322,"INCLINATION":70.759,"RA_OF_ASC_NODE":86.3874,"ARG_OF_PERICENTER":75.9319,"MEAN_ANOMALY":284.3193,"EPHEMERIS_TYPE":0,"CLASSIFICATION_TYPE":"U","NORAD_CAT_ID":24298,"ELEMENT_SET_NO":999,"REV_AT_EPOCH":52757,"BSTAR":4.7436892e-5,"MEAN_MOTION_DOT":3.8e-7,"MEAN_MOTION_DDOT":0},{"OBJECT_NAME":"ORBVIEW 2 (SEASTAR)","OBJECT_ID":"1997-037A","EPOCH":"2026-04-20T20:47:01.908384","MEAN_MOTION":14.35522471,"ECCENTRICITY":0.00012321,"INCLINATION":98.8636,"RA_OF_ASC_NODE":276.3111,"ARG_OF_PERICENTER":314.6907,"MEAN_ANOMALY":45.4177,"EPHEMERIS_TYPE":0,"CLASSIFICATION_TYPE":"U","NORAD_CAT_ID":24883,"ELEMENT_SET_NO":999,"REV_AT_EPOCH":51452,"BSTAR":7.3923924e-5,"MEAN_MOTION_DOT":1.66e-6,"MEAN_MOTION_DDOT":0},{"OBJECT_NAME":"SL-16 R/B","OBJECT_ID":"1998-043G","EPOCH":"2026-04-20T19:54:25.879680","MEAN_MOTION":14.26058883,"ECCENTRICITY":0.00087917,"INCLINATION":98.8322,"RA_OF_ASC_NODE":64.5103,"ARG_OF_PERICENTER":250.5829,"MEAN_ANOMALY":109.44,"EPHEMERIS_TYPE":0,"CLASSIFICATION_TYPE":"U","NORAD_CAT_ID":25400,"ELEMENT_SET_NO":999,"REV_AT_EPOCH":44499,"BSTAR":3.2645798e-5,"MEAN_MOTION_DOT":3.3e-7,"MEAN_MOTION_DDOT":0},{"OBJECT_NAME":"SL-16 R/B","OBJECT_ID":"1998-045B","EPOCH":"2026-04-20T09:18:27.307584","MEAN_MOTION":14.16198667,"ECCENTRICITY":0.00091762,"INCLINATION":71.0094,"RA_OF_ASC_NODE":93.8825,"ARG_OF_PERICENTER":309.8393,"MEAN_ANOMALY":50.1922,"EPHEMERIS_TYPE":0,"CLASSIFICATION_TYPE":"U","NORAD_CAT_ID":25407,"ELEMENT_SET_NO":999,"REV_AT_EPOCH":43300,"BSTAR":-7.5959673e-5,"MEAN_MOTION_DOT":-1.98e-6,"MEAN_MOTION_DDOT":0},{"OBJECT_NAME":"ISS (ZARYA)","OBJECT_ID":"1998-067A","EPOCH":"2026-04-20T18:43:46.346592","MEAN_MOTION":15.48857372,"ECCENTRICITY":0.00067015,"INCLINATION":51.6325,"RA_OF_ASC_NODE":224.2241,"ARG_OF_PERICENTER":330.9223,"MEAN_ANOMALY":29.1391,"EPHEMERIS_TYPE":0,"CLASSIFICATION_TYPE":"U","NORAD_CAT_ID":25544,"ELEMENT_SET_NO":999,"REV_AT_EPOCH":56285,"BSTAR":0.00018579997,"MEAN_MOTION_DOT":9.753e-5,"MEAN_MOTION_DDOT":0},{"OBJECT_NAME":"CZ-4B R/B","OBJECT_ID":"1999-025C","EPOCH":"2026-04-20T21:01:02.762688","MEAN_MOTION":14.18273275,"ECCENTRICITY":0.00363792,"INCLINATION":98.6545,"RA_OF_ASC_NODE":154.1411,"ARG_OF_PERICENTER":222.2036,"MEAN_ANOMALY":313.5105,"EPHEMERIS_TYPE":0,"CLASSIFICATION_TYPE":"U","NORAD_CAT_ID":25732,"ELEMENT_SET_NO":999,"REV_AT_EPOCH":39414,"BSTAR":2.6702078e-5,"MEAN_MOTION_DOT":1.2e-7,"MEAN_MOTION_DDOT":0},{"OBJECT_NAME":"OKEAN-O","OBJECT_ID":"1999-039A","EPOCH":"2026-04-20T21:31:30.158976","MEAN_MOTION":14.80396832,"ECCENTRICITY":0.00013847,"INCLINATION":97.9364,"RA_OF_ASC_NODE":170.3412,"ARG_OF_PERICENTER":116.0474,"MEAN_ANOMALY":244.0881,"EPHEMERIS_TYPE":0,"CLASSIFICATION_TYPE":"U","NORAD_CAT_ID":25860,"ELEMENT_SET_NO":999,"REV_AT_EPOCH":44063,"BSTAR":5.948568e-5,"MEAN_MOTION_DOT":4.02e-6,"MEAN_MOTION_DDOT":0},{"OBJECT_NAME":"SL-16 R/B","OBJECT_ID":"1999-039B","EPOCH":"2026-04-20T15:13:47.651520","MEAN_MOTION":14.81784856,"ECCENTRICITY":0.00160475,"INCLINATION":97.9887,"RA_OF_ASC_NODE":169.6501,"ARG_OF_PERICENTER":119.125,"MEAN_ANOMALY":241.1572,"EPHEMERIS_TYPE":0,"CLASSIFICATION_TYPE":"U","NORAD_CAT_ID":25861,"ELEMENT_SET_NO":999,"REV_AT_EPOCH":44307,"BSTAR":4.8367139e-5,"MEAN_MOTION_DOT":3.28e-6,"MEAN_MOTION_DDOT":0},{"OBJECT_NAME":"DELTA 2 R/B","OBJECT_ID":"1999-041E","EPOCH":"2026-04-20T18:33:25.820928","MEAN_MOTION":14.11921508,"ECCENTRICITY":0.05025207,"INCLINATION":51.7596,"RA_OF_ASC_NODE":133.1592,"ARG_OF_PERICENTER":112.5253,"MEAN_ANOMALY":252.966,"EPHEMERIS_TYPE":0,"CLASSIFICATION_TYPE":"U","NORAD_CAT_ID":25876,"ELEMENT_SET_NO":999,"REV_AT_EPOCH":36897,"BSTAR":6.7190627e-5,"MEAN_MOTION_DOT":1.67e-6,"MEAN_MOTION_DDOT":0}]
