SL-16 R/B               
1 22803U 93059B   26110.89611989 -.00000178  00000+0 -64070-4 0  9990
2 22803  70.9890 282.1204 0016061 152.7097 207.4874 14.17238435685519
ARIANE 40 R/B           
1 22830U 93061H   26110.94573493  .00000131  00000+0  63837-4 0  9993
2 22830  98.4850 178.9840 0011375 153.7638 206.4125 14.32882216700158
COSMOS 2278             
1 23087U 94023A   26110.67828145  .00000312  00000+0  18784-3 0  9995
2 23087  71.0522  87.2472 0010150 314.5098  45.5194 14.14384074650742
SL-16 R/B               
1 23088U 94023B   26110.91785426 -.00000235  00000+0 -96478-4 0  9990
2 23088  71.0008 342.2061 0005389 247.9455 112.1096 14.15016419652069
SL-16 R/B               
1 23343U 94074B   26110.66918840  .00000260  00000+0  41399-4 0  9998
2 23343  97.7047 139.7746 0008107  86.2174  27.0288 14.79451983693457
SL-16 R/B               
1 23405U 94077B   26110.81235813  .00000252  00000+0  15342-3 0  9998
2 23405  70.9818 263.8674 0000733 143.0015 217.1159 14.15570099622199
ARIANE 40+ R/B          
1 23561U 95021B   26110.95225274  .00000181  00000+0  71691-4 0  9997
2 23561  98.4436 181.8478 0007043  26.0632 146.6853 14.39800715625322
SL-16 R/B               
1 23705U 95058B   26110.68005397  .00000021  00000+0  34846-4 0  9993
2 23705  71.0200  92.0956 0010768  48.2638 311.9404 14.15505111573790
SL-16 R/B               
1 24298U 96051B   26110.66705299  .00000038  00000+0  47437-4 0  9999
2 24298  70.7590  86.3874 0012532  75.9319 284.3193 14.12426336527576
ORBVIEW 2 (SEASTAR)     
1 24883U 97037A   26110.86599431  .00000166  00000+0  73924-4 0  9997
2 24883  98.8636 276.3111 0001232 314.6907  45.4177 14.35522471514525
SL-16 R/B               
1 25400U 98043G   26110.82946620  .00000033  00000+0  32646-4 0  9992
2 25400  98.8322  64.5103 0008791 250.5829 109.4400 14.26058883444993
SL-16 R/B               
1 25407U 98045B   26110.38781606 -.00000198  00000+0 -75960-4 0  9993
2 25407  71.0094  93.8825 0009176 309.8393  50.1922 14.16198667433002
ISS (ZARYA)             
1 25544U 98067A   26110.78039753  .00009753  00000+0  18580-3 0  9990
2 25544  51.6325 224.2241 0006701 330.9223  29.1391 15.48857372562858
CZ-4B R/B               
1 25732U 99025C   26110.87572642  .00000012  00000+0  26702-4 0  9998
2 25732  98.6545 154.1411 0036379 222.2036 313.5105 14.18273275394149
OKEAN-O                 
1 25860U 99039A   26110.89687684  .00000402  00000+0  59486-4 0  9998
2 25860  97.9364 170.3412 0001384 116.0474 244.0881 14.80396832440636
SL-16 R/B               
1 25861U 99039B   26110.63457930  .00000328  00000+0  48367-4 0  9993
2 25861  97.9887 169.6501 0016047 119.1250 241.1572 14.81784856443079
DELTA 2 R/B             
1 25876U 99041E   26110.77321552  .00000167  00000+0  67191-4 0  9994
2 25876  51.7596 133.1592 0502520 112.5253 252.9660 14.11921508368975
